ONEWEB-0150             
1 48047U 21025F   25134.46557086 -.00000085  00000+0 -26779-3 0  9997
2 48047  87.8988  39.4409 0002030  78.1755 281.9602 13.13470511201209
ONEWEB-0107             
1 48048U 21025G   25134.16257066 -.00000001  00000+0 -38545-4 0  9993
2 48048  87.8989  39.4988 0002035  88.8851 271.2511 13.13471254201142
ONEWEB-0101             
1 48049U 21025H   25134.43002899  .00000161  00000+0  40719-3 0  9996
2 48049  87.8995  39.4814 0001833  83.7422 276.3916 13.13468679201154
ONEWEB-0113             
1 48050U 21025J   25134.29981790 -.00000227  00000+0 -65130-3 0  9997
2 48050  87.8993  39.4710 0001919  74.5564 285.5778 13.13971913201225
ONEWEB-0112             
1 48051U 21025K   25134.47233933  .00000063  00000+0  13827-3 0  9999
2 48051  87.8987  39.4344 0001952  79.3446 280.7902 13.13471706201255
ONEWEB-0156             
1 48052U 21025L   25134.48080536  .00000272  00000+0  70914-3 0  9992
2 48052  87.8991  39.4424 0001982  81.7456 278.3898 13.13471278201230
ONEWEB-0161             
1 48053U 21025M   25134.45540543 -.00000205  00000+0 -59573-3 0  9995
2 48053  87.8995  39.4637 0001986  83.8917 276.2438 13.13471060201168
